{"type": "FeatureCollection", "features": [ {"type": "Feature", "properties": {"norad_id": 41175, "name": "GSAT0208 (GALILEO 11)", "group": "galileo", "lat": 40.60592537085027, "lon": 141.70330393736288, "alt_km": 23215.295253758894, "timestamp": "2025-12-27T11:23:20.160399+00:00", "meta": {"OBJECT_NAME": "GSAT0208 (GALILEO 11)", "OBJECT_ID": "2015-079B", "EPOCH": "2025-12-26T19:16:48.817056", "MEAN_MOTION": 1.70474041, "ECCENTRICITY": 0.00020772, "INCLINATION": 55.719, "RA_OF_ASC_NODE": 105.9921, "ARG_OF_PERICENTER": 340.7165, "MEAN_ANOMALY": 19.2705, "EPHEMERIS_TYPE": 0, "CLASSIFICATION_TYPE": "U", "NORAD_CAT_ID": 41175, "ELEMENT_SET_NO": 999, "REV_AT_EPOCH": 6225, "BSTAR": 0, "MEAN_MOTION_DOT": 1.7e-07, "MEAN_MOTION_DDOT": 0}, "tle": {"line1": "1 41175U 15079B   25360.80334279  .00000017  00000+0  00000+0 0  9998", "line2": "2 41175  55.7190 105.9921 0002077 340.7165  19.2705  1.70474041 62253"}}, "geometry": {"type": "Point", "coordinates": [141.70330393736288, 40.60592537085027]}}, {"type": "Feature", "properties": {"norad_id": 41549, "name": "GSAT0211 (GALILEO 14)", "group": "galileo", "lat": -19.693730680099804, "lon": -148.00732606015143, "alt_km": 23215.959754682986, "timestamp": "2025-12-27T11:23:20.160410+00:00", "meta": {"OBJECT_NAME": "GSAT0211 (GALILEO 14)", "OBJECT_ID": "2016-030A", "EPOCH": "2025-12-25T18:06:09.128448", "MEAN_MOTION": 1.70473226, "ECCENTRICITY": 0.00039908, "INCLINATION": 55.1481, "RA_OF_ASC_NODE": 226.465, "ARG_OF_PERICENTER": 16.0221, "MEAN_ANOMALY": 344.0794, "EPHEMERIS_TYPE": 0, "CLASSIFICATION_TYPE": "U", "NORAD_CAT_ID": 41549, "ELEMENT_SET_NO": 999, "REV_AT_EPOCH": 5971, "BSTAR": 0, "MEAN_MOTION_DOT": 7e-07, "MEAN_MOTION_DDOT": 0}, "tle": {"line1": "1 41549U 16030A   25359.75427232  .00000070  00000+0  00000+0 0  9994", "line2": "2 41549  55.1481 226.4650 0003990  16.0221 344.0794  1.70473226 59712"}}, "geometry": {"type": "Point", "coordinates": [-148.00732606015143, -19.693730680099804]}}, {"type": "Feature", "properties": {"norad_id": 41550, "name": "GSAT0210 (GALILEO 13)", "group": "galileo", "lat": 1.767932715203459, "lon": 45.196369079206775, "alt_km": 23220.601934656923, "timestamp": "2025-12-27T11:23:20.160421+00:00", "meta": {"OBJECT_NAME": "GSAT0210 (GALILEO 13)", "OBJECT_ID": "2016-030B", "EPOCH": "2025-12-26T00:16:47.841312", "MEAN_MOTION": 1.70473562, "ECCENTRICITY": 5.77e-05, "INCLINATION": 55.1475, "RA_OF_ASC_NODE": 226.456, "ARG_OF_PERICENTER": 190.7717, "MEAN_ANOMALY": 169.315, "EPHEMERIS_TYPE": 0, "CLASSIFICATION_TYPE": "U", "NORAD_CAT_ID": 41550, "ELEMENT_SET_NO": 999, "REV_AT_EPOCH": 5971, "BSTAR": 0, "MEAN_MOTION_DOT": 7e-07, "MEAN_MOTION_DDOT": 0}, "tle": {"line1": "1 41550U 16030B   25360.01166483  .00000070  00000+0  00000+0 0  9995", "line2": "2 41550  55.1475 226.4560 0000577 190.7717 169.3150  1.70473562 59712"}}, "geometry": {"type": "Point", "coordinates": [45.196369079206775, 1.767932715203459]}}, {"type": "Feature", "properties": {"norad_id": 41859, "name": "GSAT0207 (GALILEO 15)", "group": "galileo", "lat": 5.795450842312987, "lon": 109.85479713189258, "alt_km": 23216.956914075054, "timestamp": "2025-12-27T11:23:20.160438+00:00", "meta": {"OBJECT_NAME": "GSAT0207 (GALILEO 15)", "OBJECT_ID": "2016-069A", "EPOCH": "2025-12-22T04:24:39.710016", "MEAN_MOTION": 1.70474442, "ECCENTRICITY": 0.00024396, "INCLINATION": 55.3874, "RA_OF_ASC_NODE": 105.9888, "ARG_OF_PERICENTER": 317.4324, "MEAN_ANOMALY": 42.5257, "EPHEMERIS_TYPE": 0, "CLASSIFICATION_TYPE": "U", "NORAD_CAT_ID": 41859, "ELEMENT_SET_NO": 999, "REV_AT_EPOCH": 5638, "BSTAR": 0, "MEAN_MOTION_DOT": 6e-08, "MEAN_MOTION_DDOT": 0}, "tle": {"line1": "1 41859U 16069A   25356.18379294  .00000006  00000+0  00000+0 0  9997", "line2": "2 41859  55.3874 105.9888 0002439 317.4324  42.5257  1.70474442 56382"}}, "geometry": {"type": "Point", "coordinates": [109.85479713189258, 5.795450842312987]}}, {"type": "Feature", "properties": {"norad_id": 41860, "name": "GSAT0212 (GALILEO 16)", "group": "galileo", "lat": 54.804597236781284, "lon": -152.08615910239348, "alt_km": 23214.490326137, "timestamp": "2025-12-27T11:23:20.160451+00:00", "meta": {"OBJECT_NAME": "GSAT0212 (GALILEO 16)", "OBJECT_ID": "2016-069B", "EPOCH": "2025-12-26T03:26:41.871552", "MEAN_MOTION": 1.70474669, "ECCENTRICITY": 0.00020518, "INCLINATION": 55.3873, "RA_OF_ASC_NODE": 105.8745, "ARG_OF_PERICENTER": 19.1308, "MEAN_ANOMALY": 340.872, "EPHEMERIS_TYPE": 0, "CLASSIFICATION_TYPE": "U", "NORAD_CAT_ID": 41860, "ELEMENT_SET_NO": 999, "REV_AT_EPOCH": 5670, "BSTAR": 0, "MEAN_MOTION_DOT": 1.8e-07, "MEAN_MOTION_DDOT": 0}, "tle": {"line1": "1 41860U 16069B   25360.14354018  .00000018  00000+0  00000+0 0  9990", "line2": "2 41860  55.3873 105.8745 0002051  19.1308 340.8720  1.70474669 56708"}}, "geometry": {"type": "Point", "coordinates": [-152.08615910239348, 54.804597236781284]}}, {"type": "Feature", "properties": {"norad_id": 41861, "name": "GSAT0213 (GALILEO 17)", "group": "galileo", "lat": -39.963745409919675, "lon": -38.85157770640317, "alt_km": 23221.49244473528, "timestamp": "2025-12-27T11:23:20.160462+00:00", "meta": {"OBJECT_NAME": "GSAT0213 (GALILEO 17)", "OBJECT_ID": "2016-069C", "EPOCH": "2025-12-25T22:11:16.691136", "MEAN_MOTION": 1.70474838, "ECCENTRICITY": 0.0002917, "INCLINATION": 55.3899, "RA_OF_ASC_NODE": 105.8882, "ARG_OF_PERICENTER": 282.7957, "MEAN_ANOMALY": 77.1667, "EPHEMERIS_TYPE": 0, "CLASSIFICATION_TYPE": "U", "NORAD_CAT_ID": 41861, "ELEMENT_SET_NO": 999, "REV_AT_EPOCH": 5656, "BSTAR": 0, "MEAN_MOTION_DOT": 1.8e-07, "MEAN_MOTION_DDOT": 0}, "tle": {"line1": "1 41861U 16069C   25359.92449874  .00000018  00000+0  00000+0 0  9990", "line2": "2 41861  55.3899 105.8882 0002917 282.7957  77.1667  1.70474838 56560"}}, "geometry": {"type": "Point", "coordinates": [-38.85157770640317, -39.963745409919675]}}, {"type": "Feature", "properties": {"norad_id": 41862, "name": "GSAT0214 (GALILEO 18)", "group": "galileo", "lat": 30.67706749552264, "lon": -98.31304156428655, "alt_km": 23222.621680365442, "timestamp": "2025-12-27T11:23:20.160473+00:00", "meta": {"OBJECT_NAME": "GSAT0214 (GALILEO 18)", "OBJECT_ID": "2016-069D", "EPOCH": "2025-12-24T07:27:29.645856", "MEAN_MOTION": 1.70474781, "ECCENTRICITY": 0.00017476, "INCLINATION": 55.3867, "RA_OF_ASC_NODE": 105.9257, "ARG_OF_PERICENTER": 287.2715, "MEAN_ANOMALY": 72.6994, "EPHEMERIS_TYPE": 0, "CLASSIFICATION_TYPE": "U", "NORAD_CAT_ID": 41862, "ELEMENT_SET_NO": 999, "REV_AT_EPOCH": 5666, "BSTAR": 0, "MEAN_MOTION_DOT": 1.5e-07, "MEAN_MOTION_DDOT": 0}, "tle": {"line1": "1 41862U 16069D   25358.31075979  .00000015  00000+0  00000+0 0  9991", "line2": "2 41862  55.3867 105.9257 0001747 287.2715  72.6994  1.70474781 56666"}}, "geometry": {"type": "Point", "coordinates": [-98.31304156428655, 30.67706749552264]}}, {"type": "Feature", "properties": {"norad_id": 43055, "name": "GSAT0215 (GALILEO 19)", "group": "galileo", "lat": -17.001076787130454, "lon": 58.551953997957064, "alt_km": 23227.63320886764, "timestamp": "2025-12-27T11:23:20.160484+00:00", "meta": {"OBJECT_NAME": "GSAT0215 (GALILEO 19)", "OBJECT_ID": "2017-079A", "EPOCH": "2025-12-24T05:08:42.877824", "MEAN_MOTION": 1.70473983, "ECCENTRICITY": 0.00011857, "INCLINATION": 55.1264, "RA_OF_ASC_NODE": 226.3216, "ARG_OF_PERICENTER": 351.3988, "MEAN_ANOMALY": 8.6951, "EPHEMERIS_TYPE": 0, "CLASSIFICATION_TYPE": "U", "NORAD_CAT_ID": 43055, "ELEMENT_SET_NO": 999, "REV_AT_EPOCH": 5000, "BSTAR": 0, "MEAN_MOTION_DOT": 7.2e-07, "MEAN_MOTION_DDOT": 0}, "tle": {"line1": "1 43055U 17079A   25358.21438516  .00000072  00000+0  00000+0 0  9991", "line2": "2 43055  55.1264 226.3216 0001185 351.3988   8.6951  1.70473983 50002"}}, "geometry": {"type": "Point", "coordinates": [58.551953997957064, -17.001076787130454]}}, {"type": "Feature", "properties": {"norad_id": 43056, "name": "GSAT0216 (GALILEO 20)", "group": "galileo", "lat": 17.96839336743947, "lon": -120.68839060854893, "alt_km": 23216.310080261086, "timestamp": "2025-12-27T11:23:20.160495+00:00", "meta": {"OBJECT_NAME": "GSAT0216 (GALILEO 20)", "OBJECT_ID": "2017-079B", "EPOCH": "2025-12-25T02:12:49.402944", "MEAN_MOTION": 1.7047407, "ECCENTRICITY": 0.00022728, "INCLINATION": 55.1265, "RA_OF_ASC_NODE": 226.2974, "ARG_OF_PERICENTER": 325.9162, "MEAN_ANOMALY": 34.1608, "EPHEMERIS_TYPE": 0, "CLASSIFICATION_TYPE": "U", "NORAD_CAT_ID": 43056, "ELEMENT_SET_NO": 999, "REV_AT_EPOCH": 5003, "BSTAR": 0, "MEAN_MOTION_DOT": 7e-07, "MEAN_MOTION_DDOT": 0}, "tle": {"line1": "1 43056U 17079B   25359.09223846  .00000070  00000+0  00000+0 0  9995", "line2": "2 43056  55.1265 226.2974 0002272 325.9162  34.1608  1.70474070 50037"}}, "geometry": {"type": "Point", "coordinates": [-120.68839060854893, 17.96839336743947]}}, {"type": "Feature", "properties": {"norad_id": 43057, "name": "GSAT0217 (GALILEO 21)", "group": "galileo", "lat": -48.84244844402062, "lon": 99.14419229659141, "alt_km": 23231.31190717078, "timestamp": "2025-12-27T11:23:20.160506+00:00", "meta": {"OBJECT_NAME": "GSAT0217 (GALILEO 21)", "OBJECT_ID": "2017-079C", "EPOCH": "2025-12-24T03:21:20.619936", "MEAN_MOTION": 1.70473665, "ECCENTRICITY": 0.00026088, "INCLINATION": 55.1247, "RA_OF_ASC_NODE": 226.3216, "ARG_OF_PERICENTER": 4.3447, "MEAN_ANOMALY": 355.754, "EPHEMERIS_TYPE": 0, "CLASSIFICATION_TYPE": "U", "NORAD_CAT_ID": 43057, "ELEMENT_SET_NO": 999, "REV_AT_EPOCH": 5000, "BSTAR": 0, "MEAN_MOTION_DOT": 7.2e-07, "MEAN_MOTION_DDOT": 0}, "tle": {"line1": "1 43057U 17079C   25358.13982199  .00000072  00000+0  00000+0 0  9995", "line2": "2 43057  55.1247 226.3216 0002608   4.3447 355.7540  1.70473665 50008"}}, "geometry": {"type": "Point", "coordinates": [99.14419229659141, -48.84244844402062]}}]}